HAWK-A                  
1 43765U 18099H   26191.12017380  .00004682  00000+0  18795-3 0  9995
2 43765  97.3904 243.0590 0034202 201.9017 158.0761 15.24923091416592
HAWK-B                  
1 43794U 18099AN  26191.10350195  .00004222  00000+0  17988-3 0  9992
2 43794  97.3952 242.4091 0030894 220.3198 139.5749 15.23078236416528
HAWK-C                  
1 43799U 18099AT  26191.04446000  .00005917  00000+0  21155-3 0  9994
2 43799  97.3884 244.0095 0039783 202.1098 157.8428 15.28438375417406
HAWK-2C                 
1 47502U 21006CT  26191.16695632  .00004802  00000+0  14383-3 0  9999
2 47502  97.2272 235.0203 0008552 115.2036 245.0096 15.34948446303024
HAWK-2A                 
1 47505U 21006CW  26191.16922953  .00004863  00000+0  14559-3 0  9993
2 47505  97.2315 235.7136 0008049 118.3840 241.8217 15.34963523303027
HAWK-2B                 
1 47508U 21006CZ  26191.09798807  .00005376  00000+0  16003-3 0  9993
2 47508  97.2185 233.9393 0008613 116.9526 243.2599 15.35088886303011
HAWK-3B                 
1 48931U 21059BE  26191.00679719  .00035395  00000+0  27709-3 0  9992
2 48931  97.6649  29.9062 0004089 217.8107 142.2868 15.71525502281435
HAWK-3C                 
1 48948U 21059BX  26191.00649202  .00037702  00000+0  29488-3 0  9994
2 48948  97.6774  35.6306 0004404 218.4113 141.6836 15.71533406281432
HAWK-3A                 
1 48957U 21059CG  26191.00637890  .00037305  00000+0  29181-3 0  9993
2 48957  97.6711  32.8165 0004344 219.9841 140.1101 15.71532739281439
HAWK-5C                 
1 52754U 22057Y   26190.87143071  .00014501  00000+0  24089-3 0  9994
2 52754  97.6610 352.0184 0003309   7.5352 352.5949 15.52200356229867
HAWK-5B                 
1 52756U 22057AA  26190.74230529  .00013532  00000+0  22497-3 0  9991
2 52756  97.6627 350.2329 0003978 354.7757   5.3452 15.52193096229848
HAWK-5A                 
1 52757U 22057AB  26191.25784406  .00013256  00000+0  22032-3 0  9995
2 52757  97.6616 351.6130 0003836 357.6860   2.4373 15.52207867229923
HAWK-6B                 
1 55324U 23011A   26191.13323944  .00003105  00000+0  13694-3 0  9998
2 55324  40.4970 218.2156 0003382 213.8649 146.1945 15.23126702191346
HAWK-6C                 
1 55326U 23011C   26191.19818339  .00003305  00000+0  14521-3 0  9995
2 55326  40.4958 214.6720 0003904 203.6863 156.3767 15.23128453191368
HAWK-6A                 
1 55327U 23011D   26190.54254033  .00002857  00000+0  12666-3 0  9998
2 55327  40.4966 220.1247 0003302 196.9999 163.0700 15.23123028191264
HAWK-7A                 
1 56191U 23054P   26190.71124113  .00003861  00000+0  14579-3 0  9990
2 56191  97.2676  77.4761 0002032 358.9659   1.1576 15.27595507180460
